satname,norad_id,inclination_deg,eccentricity,mean_motion_rev_per_day,perigee_km,apogee_km,l1,l2
STARLINK-1263,45405,53.1584,0.0001329,15.30212183,474.2678877630151,476.08949907432634,1 45405U 20019AX  26074.76040975  .00001529  00000+0  63719-4 0  9993,2 45405  53.1584 101.0736 0001329  88.2690 271.8463 15.30212183330904
STARLINK-1265,45406,53.1606,0.0001649,15.30174793,474.16020384355033,476.42046417830625,1 45406U 20019AY  26074.77518875 -.00002869  00000+0 -84821-4 0  9991,2 45406  53.1606 101.0804 0001649  93.5712 266.5478 15.30174793330906
STARLINK-1278,45408,53.0443,0.0002807,15.57184695,393.90796986858186,397.71086338687746,1 45408U 20019BA  26074.49575123  .00078741  00000+0  10600-2 0  9993,2 45408  53.0443 102.2588 0002807  57.8148 302.3135 15.57184695330866
STARLINK-1296,45412,53.1589,0.0001682,15.30440328,473.34497409676624,475.6502003719115,1 45412U 20019BE  26074.76866338  .00042970  00000+0  14438-2 0  9997,2 45412  53.1589 101.0113 0001682  84.5309 275.5883 15.30440328330905
STARLINK-1298,45413,53.033,0.0003666,16.01953598,266.5721867569591,271.445874226516,1 45413U 20019BF  26074.92406906  .00449013  10037-3  76807-3 0  9990,2 45413  53.0330  21.6767 0003666  57.2849 302.8534 16.01953598332110
STARLINK-1309,45414,53.0669,0.0006325,15.55963197,395.0674158574948,403.6409421989665,1 45414U 20019BG  26074.47515158  .00090684  00000+0  12737-2 0  9993,2 45414  53.0669  95.6313 0006325  50.9557 309.2016 15.55963197330933
STARLINK-1316,45415,53.1604,0.0001151,15.30318859,474.07142086237036,475.648980818004,1 45415U 20019BH  26074.48740577  .00010193  00000+0  35451-3 0  9996,2 45415  53.1604 102.3660 0001151 105.3771 254.7357 15.30318859330888
STARLINK-1286,45417,53.0487,0.0003487,15.51332954,410.465260434863,415.2012831023949,1 45417U 20019BK  26074.46961353  .00032181  00000+0  54389-3 0  9995,2 45417  53.0487 102.9396 0003487  71.2111 288.9276 15.51332954331125
STARLINK-1308,45419,53.0538,0.0003354,15.51722212,409.4202124360145,413.97483343399836,1 45419U 20019BM  26074.54553749  .00078920  00000+0  12967-2 0  9998,2 45419  53.0538 123.9603 0003354  35.9116 324.2117 15.51722212330580
STARLINK-1329,45531,53.0489,3.93e-05,15.57600866,394.3365864075013,394.86892375225034,1 45531U 20025A   26074.93241908  .00117862  00000+0  15515-2 0  9995,2 45531  53.0489  51.0796 0000393 120.1554 239.9497 15.57600866326424
STARLINK-1338,45532,53.0497,0.0005043,15.56042024,395.7075113224064,402.54305806274806,1 45532U 20025B   26074.67799073  .00101948  00000+0  14253-2 0  9994,2 45532  53.0497  55.7587 0005043  36.3408 323.7945 15.56042024326331
STARLINK-1350,45535,53.0738,0.000236,15.36300152,455.4483030181127,458.67451666755824,1 45535U 20025E   26074.51591163  .00011592  00000+0  33304-3 0  9994,2 45535  53.0738   5.7787 0002360  83.1431 276.9839 15.36300152327052
STARLINK-1362,45538,53.1618,0.0001553,15.29748472,475.4990472406689,477.6281172415129,1 45538U 20025H   26074.53415829 -.00166432  00000+0 -58139-2 0  9991,2 45538  53.1618  73.8485 0001553  97.2346 262.8832 15.29748472326079
STARLINK-1368,45540,53.1591,0.0001247,15.30248307,474.2162422018091,475.9254322364113,1 45540U 20025K   26074.41317407  .00011608  00000+0  40282-3 0  9997,2 45540  53.1591  74.7429 0001247  80.2962 279.8179 15.30248307326049
STARLINK-1371,45542,53.0517,0.0002026,15.48132796,420.8107515253432,423.56624341691804,1 45542U 20025M   26074.68919954  .00075888  00000+0  14162-2 0  9990,2 45542  53.0517  60.7411 0002026  42.7773 317.3391 15.48132796326264
STARLINK-1372,45543,53.1611,0.0001424,15.30190998,474.26602673829075,476.21786906265334,1 45543U 20025N   26074.71655573 -.00001385  00000+0 -34641-4 0  9998,2 45543  53.1611  73.0272 0001424  99.9574 260.1587 15.30190998325199
STARLINK-1373,45544,53.05,0.0005077,15.51974476,407.5149134024741,414.40856426188475,1 45544U 20025P   26074.94596845  .00096566  00000+0  15668-2 0  9999,2 45544  53.0500  58.8882 0005077  37.7048 322.4316 15.51974476326319
STARLINK-1327,45555,53.0469,0.0006728,15.55229814,396.92334123921864,406.0460001593128,1 45555U 20025AA  26074.18166545  .00104814  00000+0  15085-2 0  9996,2 45555  53.0469  40.0958 0006728  81.2306 278.9466 15.55229814326502
STARLINK-1356,45564,53.0508,0.0006034,15.45933574,424.5291232348354,432.7435372897953,1 45564U 20025AK  26074.93969839  .00083840  00000+0  16846-2 0  9997,2 45564  53.0508  44.0724 0006034  58.2834 301.8760 15.45933574326519
STARLINK-1357,45565,53.0517,0.0004324,15.57016179,393.3689052605014,399.22743679640644,1 45565U 20025AL  26074.81561678  .00122454  00000+0  16459-2 0  9999,2 45565  53.0517   8.3430 0004324 125.8223 234.3190 15.57016179327019
STARLINK-1361,45567,53.0496,0.000769,15.4886383,414.82077566156386,425.2763850841775,1 45567U 20025AN  26074.95104968  .00078824  00000+0  14317-2 0  9993,2 45567  53.0496  43.9428 0007690  57.6342 302.5409 15.48863830326522
STARLINK-1363,45568,53.0424,0.0007712,15.78125293,330.5747257310113,340.93022886079143,1 45568U 20025AP  26074.08278077  .00139481  00000+0  79024-3 0  9995,2 45568  53.0424  10.7549 0007712  78.7114 281.4772 15.78125293326903
STARLINK-1366,45569,53.0427,0.0007954,15.77377673,332.5318220958261,343.215651976303,1 45569U 20025AQ  26075.00002315  .00027712  00000+0  16761-3 0  9991,2 45569  53.0427   6.9855 0007954  82.5057 344.4053 15.77377673  6043
STARLINK-1376,45570,53.1622,0.000114,15.30406576,473.8171282713165,475.37955192885875,1 45570U 20025AR  26074.92431075  .00011496  00000+0  39714-3 0  9997,2 45570  53.1622  48.8476 0001140 114.3256 245.7864 15.30406576326450
STARLINK-1320,45572,53.0487,0.0006671,15.69731293,355.1710304327362,364.1606069534364,1 45572U 20025AT  26074.92074677  .00068061  00000+0  56091-3 0  9997,2 45572  53.0487 314.9575 0006671  75.6648 284.5108 15.69731293327783
STARLINK-1321,45573,53.0499,0.0004572,15.4957999,414.8466620957661,421.06100755513035,1 45573U 20025AU  26074.88795378  .00092381  00000+0  16332-2 0  9996,2 45573  53.0499  28.7925 0004572  81.1766 278.9759 15.49579990326428
STARLINK-1331,45578,53.0529,0.0005556,15.49554025,414.2538031976346,421.8057036940627,1 45578U 20025AZ  26074.96026737  .00063261  00000+0  11259-2 0  9994,2 45578  53.0529  35.1271 0005556 104.0112 256.1514 15.49554025326650
STARLINK-1333,45580,53.1625,0.0001342,15.30190239,474.3244904018766,476.1639379197577,1 45580U 20025BB  26074.63700631  .00000420  00000+0  26320-4 0  9998,2 45580  53.1625  50.1796 0001342  91.0899 269.0256 15.30190239326419
STARLINK-1335,45581,53.1583,0.0001578,15.2934026,476.7014363674898,478.86516481435683,1 45581U 20025BC  26074.91133271 -.00001918  00000+0 -54186-4 0  9996,2 45581  53.1583  46.1870 0001578  95.4815 264.6365 15.29340260326486
STARLINK-1337,45582,53.0531,0.0005243,15.59012157,386.9659993459718,394.06360762710756,1 45582U 20025BD  26074.96919002  .00073940  00000+0  93002-3 0  9997,2 45582  53.0531  31.2394 0005243 101.4451 258.7150 15.59012157326695
STARLINK-1347,45586,53.0456,0.0005483,15.55625625,396.6179882362467,404.05126021937394,1 45586U 20025BH  26075.00002315  .00082316  00000+0  11727-2 0  9997,2 45586  53.0456 358.9860 0005483  88.4680  16.2851 15.55625625  5927
STARLINK-1364,45589,53.0505,0.0008008,15.50641993,409.410653698068,420.2903024429452,1 45589U 20025BL  26074.16871615  .00087161  00000+0  14845-2 0  9990,2 45589  53.0505  36.9141 0008008  82.4383 277.7534 15.50641993326547
STARLINK-1365,45590,53.0519,0.0004263,15.4628745,424.69649537139776,430.4990648449184,1 45590U 20025BM  26074.29354105  .00079451  00000+0  15789-2 0  9997,2 45590  53.0519  66.8219 0004263  60.9810 299.1623 15.46287450326150
STARLINK-1443,45660,53.1388,0.0003464,15.25637833,486.49207977167043,491.2495427833228,1 45660U 20035D   26074.21880858  .00050805  00000+0  19710-2 0  9997,2 45660  53.1388  39.4022 0003464  75.8821 284.2562 15.25637833319600
STARLINK-1446,45663,53.0257,5.2e-05,15.4318502,436.3618854611914,437.0706302000053,1 45663U 20035G   26074.96426083  .00015951  00000+0  36260-3 0  9991,2 45663  53.0257 329.5662 0000520 325.0635  35.0335 15.43185020320645
STARLINK-1448,45665,53.0504,0.0008022,15.53776805,400.26863613409023,411.1526412856365,1 45665U 20035J   26074.95754921  .00102091  00000+0  15496-2 0  9996,2 45665  53.0504  22.5214 0008022 102.6553 257.5354 15.53776805319893
STARLINK-1451,45668,53.0536,0.0002024,15.10437766,533.4647716858963,536.2631544757514,1 45668U 20035M   26074.90139168  .00023875  00000+0  14483-2 0  9991,2 45668  53.0536  38.0063 0002024  63.8233 296.2966 15.10437766319683
STARLINK-1452,45669,53.0331,0.0007077,15.46166467,423.1361249469692,432.76946444238,1 45669U 20035N   26074.95276690  .00069661  00000+0  13922-2 0  9999,2 45669  53.0331 351.8665 0007077  82.0420 278.1389 15.46166467320333
STARLINK-1453,45670,53.0482,0.0005698,15.54034167,401.09663107669166,408.8266502876131,1 45670U 20035P   26074.94766160  .00114357  00000+0  17171-2 0  9999,2 45670  53.0482 343.1490 0005698  79.1965 280.9685 15.54034167320341
STARLINK-1454,45671,53.0505,0.0008387,15.52465263,403.8380032930554,415.2236372948173,1 45671U 20035Q   26074.86982220  .00117129  00000+0  18593-2 0  9997,2 45671  53.0505  23.1279 0008387  86.0304 274.1664 15.52465263319871
STARLINK-1456,45673,53.0492,0.0002122,15.50903586,412.6452918394916,415.5279115360481,1 45673U 20035S   26074.54926961  .00120672  00000+0  20267-2 0  9992,2 45673  53.0492  18.1923 0002122 143.5397 216.5756 15.50903586319932
STARLINK-1457,45674,53.0471,0.0008263,15.80498967,323.48648805641005,334.5707499583814,1 45674U 20035T   26075.00002315  .00077669  00000+0  39945-3 0  9994,2 45674  53.0471 350.7897 0008263  95.8642 293.3750 15.80498967  6091
STARLINK-1458,45675,53.0522,0.0007014,15.43855993,429.96303278585856,439.5201388660553,1 45675U 20035U   26074.95861820  .00045400  00000+0  98789-3 0  9991,2 45675  53.0522  25.7095 0007014 100.2311 259.9486 15.43855993319822
